{
  "links" : {
    "next" : "https://api.nasa.gov/neo/rest/v1/feed?start_date=1998-07-16&end_date=1998-07-16&detailed=true&api_key=t0TVs3DtDT2H8Oy2Zy8m2eVrNsAVKAexjcZXUckd",
    "prev" : "https://api.nasa.gov/neo/rest/v1/feed?start_date=1998-07-14&end_date=1998-07-14&detailed=true&api_key=t0TVs3DtDT2H8Oy2Zy8m2eVrNsAVKAexjcZXUckd",
    "self" : "https://api.nasa.gov/neo/rest/v1/feed?start_date=1998-07-15&end_date=1998-07-15&detailed=true&api_key=t0TVs3DtDT2H8Oy2Zy8m2eVrNsAVKAexjcZXUckd"
  },
  "element_count" : 4,
  "near_earth_objects" : {
    "1998-07-15" : [ {
      "links" : {
        "self" : "https://api.nasa.gov/neo/rest/v1/neo/3596144?api_key=t0TVs3DtDT2H8Oy2Zy8m2eVrNsAVKAexjcZXUckd"
      },
      "neo_reference_id" : "3596144",
      "name" : "(2012 BT23)",
      "nasa_jpl_url" : "http://ssd.jpl.nasa.gov/sbdb.cgi?sstr=3596144",
      "absolute_magnitude_h" : 19.0,
      "estimated_diameter" : {
        "kilometers" : {
          "estimated_diameter_min" : 0.4212646106,
          "estimated_diameter_max" : 0.9419763057
        },
        "meters" : {
          "estimated_diameter_min" : 421.2646105562,
          "estimated_diameter_max" : 941.9763057186
        },
        "miles" : {
          "estimated_diameter_min" : 0.2617616123,
          "estimated_diameter_max" : 0.5853167591
        },
        "feet" : {
          "estimated_diameter_min" : 1382.1017848971,
          "estimated_diameter_max" : 3090.4735428537
        }
      },
      "is_potentially_hazardous_asteroid" : true,
      "close_approach_data" : [ {
        "close_approach_date" : "1998-07-15",
        "epoch_date_close_approach" : 900486000000,
        "relative_velocity" : {
          "kilometers_per_second" : "15.5243262671",
          "kilometers_per_hour" : "55887.5745616928",
          "miles_per_hour" : "34726.3654269585"
        },
        "miss_distance" : {
          "astronomical" : "0.1544314277",
          "lunar" : "60.0738258362",
          "kilometers" : "23102614",
          "miles" : "14355299"
        },
        "orbiting_body" : "Earth"
      } ],
      "orbital_data" : {
        "orbit_id" : "53",
        "orbit_determination_date" : "2017-04-06 08:51:18",
        "orbit_uncertainty" : "0",
        "minimum_orbit_intersection" : ".0486794",
        "jupiter_tisserand_invariant" : "3.607",
        "epoch_osculation" : "2458000.5",
        "eccentricity" : ".6004890252454106",
        "semi_major_axis" : "1.975250910376768",
        "inclination" : "9.106127491641239",
        "ascending_node_longitude" : "182.3297532071272",
        "orbital_period" : "1013.985705903247",
        "perihelion_distance" : ".7891344165895127",
        "perihelion_argument" : "43.25540356656504",
        "aphelion_distance" : "3.161367404164023",
        "perihelion_time" : "2458066.835449050640",
        "mean_anomaly" : "336.4486210020508",
        "mean_motion" : ".3550345906299697",
        "equinox" : "J2000"
      }
    }, {
      "links" : {
        "self" : "https://api.nasa.gov/neo/rest/v1/neo/3634786?api_key=t0TVs3DtDT2H8Oy2Zy8m2eVrNsAVKAexjcZXUckd"
      },
      "neo_reference_id" : "3634786",
      "name" : "(2013 GX79)",
      "nasa_jpl_url" : "http://ssd.jpl.nasa.gov/sbdb.cgi?sstr=3634786",
      "absolute_magnitude_h" : 20.8,
      "estimated_diameter" : {
        "kilometers" : {
          "estimated_diameter_min" : 0.1838886721,
          "estimated_diameter_max" : 0.411187571
        },
        "meters" : {
          "estimated_diameter_min" : 183.8886720703,
          "estimated_diameter_max" : 411.1875710413
        },
        "miles" : {
          "estimated_diameter_min" : 0.1142630881,
          "estimated_diameter_max" : 0.2555000322
        },
        "feet" : {
          "estimated_diameter_min" : 603.309310875,
          "estimated_diameter_max" : 1349.040630575
        }
      },
      "is_potentially_hazardous_asteroid" : false,
      "close_approach_data" : [ {
        "close_approach_date" : "1998-07-15",
        "epoch_date_close_approach" : 900486000000,
        "relative_velocity" : {
          "kilometers_per_second" : "17.1344721739",
          "kilometers_per_hour" : "61684.0998258935",
          "miles_per_hour" : "38328.1008057059"
        },
        "miss_distance" : {
          "astronomical" : "0.4302254848",
          "lunar" : "167.357711792",
          "kilometers" : "64360820",
          "miles" : "39991960"
        },
        "orbiting_body" : "Earth"
      } ],
      "orbital_data" : {
        "orbit_id" : "23",
        "orbit_determination_date" : "2017-04-06 08:46:06",
        "orbit_uncertainty" : "2",
        "minimum_orbit_intersection" : ".316266",
        "jupiter_tisserand_invariant" : "5.681",
        "epoch_osculation" : "2458000.5",
        "eccentricity" : ".4072408399047529",
        "semi_major_axis" : "1.056226604678759",
        "inclination" : "23.46451707683547",
        "ascending_node_longitude" : "205.0872079155727",
        "orbital_period" : "396.4916819164499",
        "perihelion_distance" : ".6260879950596359",
        "perihelion_argument" : "195.2963513115569",
        "aphelion_distance" : "1.486365214297882",
        "perihelion_time" : "2457808.165214953333",
        "mean_anomaly" : "174.6329766166209",
        "mean_motion" : ".9079635624634882",
        "equinox" : "J2000"
      }
    }, {
      "links" : {
        "self" : "https://api.nasa.gov/neo/rest/v1/neo/3744802?api_key=t0TVs3DtDT2H8Oy2Zy8m2eVrNsAVKAexjcZXUckd"
      },
      "neo_reference_id" : "3744802",
      "name" : "(2016 DB1)",
      "nasa_jpl_url" : "http://ssd.jpl.nasa.gov/sbdb.cgi?sstr=3744802",
      "absolute_magnitude_h" : 26.5,
      "estimated_diameter" : {
        "kilometers" : {
          "estimated_diameter_min" : 0.0133215567,
          "estimated_diameter_max" : 0.0297879063
        },
        "meters" : {
          "estimated_diameter_min" : 13.3215566698,
          "estimated_diameter_max" : 29.7879062798
        },
        "miles" : {
          "estimated_diameter_min" : 0.008277629,
          "estimated_diameter_max" : 0.0185093411
        },
        "feet" : {
          "estimated_diameter_min" : 43.7058959846,
          "estimated_diameter_max" : 97.7293544391
        }
      },
      "is_potentially_hazardous_asteroid" : false,
      "close_approach_data" : [ {
        "close_approach_date" : "1998-07-15",
        "epoch_date_close_approach" : 900486000000,
        "relative_velocity" : {
          "kilometers_per_second" : "7.9125493789",
          "kilometers_per_hour" : "28485.1777641242",
          "miles_per_hour" : "17699.5817057137"
        },
        "miss_distance" : {
          "astronomical" : "0.4422570888",
          "lunar" : "172.0380096436",
          "kilometers" : "66160716",
          "miles" : "41110364"
        },
        "orbiting_body" : "Earth"
      } ],
      "orbital_data" : {
        "orbit_id" : "7",
        "orbit_determination_date" : "2017-04-06 08:28:05",
        "orbit_uncertainty" : "6",
        "minimum_orbit_intersection" : ".0151862",
        "jupiter_tisserand_invariant" : "5.286",
        "epoch_osculation" : "2458000.5",
        "eccentricity" : ".1894033748511892",
        "semi_major_axis" : "1.1905397625746",
        "inclination" : "12.92118194712537",
        "ascending_node_longitude" : "337.6355151403679",
        "orbital_period" : "474.4760376021226",
        "perihelion_distance" : ".965047513648437",
        "perihelion_argument" : "138.5438882716941",
        "aphelion_distance" : "1.416032011500762",
        "perihelion_time" : "2457882.747985605772",
        "mean_anomaly" : "89.34218342438078",
        "mean_motion" : ".7587316776192651",
        "equinox" : "J2000"
      }
    }, {
      "links" : {
        "self" : "https://api.nasa.gov/neo/rest/v1/neo/3781651?api_key=t0TVs3DtDT2H8Oy2Zy8m2eVrNsAVKAexjcZXUckd"
      },
      "neo_reference_id" : "3781651",
      "name" : "(2017 SS10)",
      "nasa_jpl_url" : "http://ssd.jpl.nasa.gov/sbdb.cgi?sstr=3781651",
      "absolute_magnitude_h" : 25.187,
      "estimated_diameter" : {
        "kilometers" : {
          "estimated_diameter_min" : 0.024386809,
          "estimated_diameter_max" : 0.0545305626
        },
        "meters" : {
          "estimated_diameter_min" : 24.3868089865,
          "estimated_diameter_max" : 54.5305626481
        },
        "miles" : {
          "estimated_diameter_min" : 0.0151532559,
          "estimated_diameter_max" : 0.0338837102
        },
        "feet" : {
          "estimated_diameter_min" : 80.0092183953,
          "estimated_diameter_max" : 178.9060511585
        }
      },
      "is_potentially_hazardous_asteroid" : false,
      "close_approach_data" : [ {
        "close_approach_date" : "1998-07-15",
        "epoch_date_close_approach" : 900486000000,
        "relative_velocity" : {
          "kilometers_per_second" : "11.0224204287",
          "kilometers_per_hour" : "39680.7135432512",
          "miles_per_hour" : "24656.0522569163"
        },
        "miss_distance" : {
          "astronomical" : "0.3351057689",
          "lunar" : "130.3561401367",
          "kilometers" : "50131112",
          "miles" : "31150028"
        },
        "orbiting_body" : "Earth"
      } ],
      "orbital_data" : {
        "orbit_id" : "2",
        "orbit_determination_date" : "2017-09-28 06:49:17",
        "orbit_uncertainty" : "6",
        "minimum_orbit_intersection" : ".0240122",
        "jupiter_tisserand_invariant" : "6.825",
        "epoch_osculation" : "2458000.5",
        "eccentricity" : ".3260357937467516",
        "semi_major_axis" : ".8530614548537201",
        "inclination" : "18.67301195226717",
        "ascending_node_longitude" : "181.707208288901",
        "orbital_period" : "287.7854980609809",
        "perihelion_distance" : ".5749328863057288",
        "perihelion_argument" : "323.6011374134225",
        "aphelion_distance" : "1.131190023401711",
        "perihelion_time" : "2458114.157908812969",
        "mean_anomaly" : "217.8217198282911",
        "mean_motion" : "1.250931691921867",
        "equinox" : "J2000"
      }
    } ]
  }
}